0 FENGYUN 1C DEB
1 30386U 99025ACZ 19189.38107808  .00000207  00000-0  28034-3 0  9997
2 30386  98.6670 347.7957 0325981  73.9259 345.6230 13.48218379611392
0 FENGYUN 1C DEB
1 30386U 99025ACZ 19188.95399414 +.00000224 +00000-0 +30026-3 0  9998
2 30386 098.6670 347.4244 0326013 075.0161 072.7381 13.48218269611113
0 FENGYUN 1C DEB
1 30387U 99025ADA 19188.93996740 +.00000033 +00000-0 +41951-4 0  9990
2 30387 098.8852 220.6339 0000920 093.9163 026.8930 14.12575472641322
0 FENGYUN 1C DEB
1 30388U 99025ADB 19188.90980639 +.00000074 +00000-0 +49912-4 0  9998
2 30388 098.8524 225.4002 0235401 310.3770 173.3076 14.14116127641838
0 FENGYUN 1C DEB
1 30389U 99025ADC 19188.96714524 +.00000655 +00000-0 +31933-3 0  9991
2 30389 098.9705 191.3369 0015680 186.9656 225.6586 14.21618203642572
0 FENGYUN 1C DEB
1 30389U 99025ADC 19189.54281267  .00000655  00000-0  31910-3 0  9994
2 30389  98.9705 191.9220 0015744 185.2615 291.8790 14.21618994642885
0 FENGYUN 1C DEB
1 30390U 99025ADD 19189.06920839  .00000147  00000-0  97337-4 0  9990
2 30390  98.9883 232.0899 0082856  40.3008  18.3823 14.14189169640895
0 FENGYUN 1C DEB
1 30390U 99025ADD 19188.85509021 +.00000147 +00000-0 +97517-4 0  9992
2 30390 098.9883 231.8744 0082880 040.9041 008.2919 14.14189077640679
0 FENGYUN 1C DEB
1 30391U 99025ADE 19188.91737649 +.00000205 +00000-0 +14301-3 0  9993
2 30391 098.9894 230.6496 0081339 050.3780 073.7633 14.07617904637590
0 FENGYUN 1C DEB
1 30391U 99025ADE 19189.56334682  .00000166  00000-0  12070-3 0  9992
2 30391  98.9894 231.2926 0081290  48.5899 107.1506 14.07618176637897
0 FENGYUN 1C DEB
1 30393U 99025ADG 19188.97047318 -.00000111 +00000-0 -44335-4 0  9997
2 30393 099.3584 181.7460 0071453 193.3683 221.2907 13.98073024634898
0 FENGYUN 1C DEB
1 30394U 99025ADH 19189.83862108 -.00000091  00000-0 -33129-4 0  9992
2 30394  99.2849 141.3079 0090766 331.6854  95.2594 13.93920413633938
0 FENGYUN 1C DEB
1 30396U 99025ADK 19188.92597278 -.00000020 +00000-0 +12648-4 0  9990
2 30396 098.2858 073.9323 0135778 138.1412 350.5666 13.86459938630120
0 FENGYUN 1C DEB
1 30396U 99025ADK 19189.21276053 -.00000019  00000-0  13482-4 0  9993
2 30396  98.2857  74.1864 0135793 137.3536 341.9941 13.86459960630379
0 FENGYUN 1C DEB
1 30397U 99025ADL 19189.86905990  .00000281  00000-0  22714-3 0  9991
2 30397  98.4104 156.1414 0163685 142.2891 247.5847 13.90984736630857
0 FENGYUN 1C DEB
1 30398U 99025ADM 19189.10966657  .00000097  00000-0  13519-3 0  9994
2 30398  99.8029 342.1216 0176343 260.8205 163.2156 13.75653404624552
0 FENGYUN 1C DEB
1 30398U 99025ADM 19188.91010343 +.00000096 +00000-0 +13355-3 0  9991
2 30398 099.8029 341.9164 0176332 261.3405 254.9045 13.75653353624241
0 FENGYUN 1C DEB
1 30400U 99025ADP 19188.73409627 +.00000295 +00000-0 +20776-3 0  9998
2 30400 099.1597 101.7937 0279618 268.7013 115.6184 13.88519726627592
0 FENGYUN 1C DEB
1 30400U 99025ADP 19189.33038579  .00000320  00000-0  22328-3 0  9993
2 30400  99.1596 102.3802 0279556 267.0795 216.2862 13.88520326627891
0 FENGYUN 1C DEB
1 30401U 99025ADQ 19189.80326089  .00000009  00000-0  21309-4 0  9995
2 30401  98.9408 324.0183 0111310  67.8438 293.4510 14.26002172648324
0 FENGYUN 1C DEB
1 30401U 99025ADQ 19188.82094666 +.00000008 +00000-0 +20874-4 0  9994
2 30401 098.9406 323.0162 0111335 070.6553 290.6624 14.26002113647986
0 FENGYUN 1C DEB
1 30403U 99025ADS 19188.58723462 +.00000479 +00000-0 +30842-3 0  9999
2 30403 099.1885 201.1743 0095667 123.6319 237.4020 14.05760158636794
0 FENGYUN 1C DEB
1 30405U 99025ADU 19188.85124472 +.00000285 +00000-0 +17002-3 0  9995
2 30405 098.8974 260.9064 0062783 042.4199 025.5622 14.14075700640866
0 FENGYUN 1C DEB
1 30405U 99025ADU 19189.84107090  .00000282  00000-0  16819-3 0  9994
2 30405  98.8974 261.8920 0062661  39.6138  24.4427 14.14076338641346
0 FENGYUN 1C DEB
1 30406U 99025ADV 19189.88783628  .00000319  00000-0  41384-3 0  9992
2 30406  98.6047 346.1022 0293781 325.8784 192.7310 13.52113761613906
0 FENGYUN 1C DEB
1 30409U 99025ADY 19188.81679257 +.00000602 +00000-0 +38879-3 0  9999
2 30409 098.6314 293.7327 0175154 111.6785 004.2152 13.99029487635396
0 FENGYUN 1C DEB
1 30409U 99025ADY 19189.16656825  .00000593  00000-0  38314-3 0  9997
2 30409  98.6314 294.0624 0175144 110.7122 325.8533 13.99029874635669
0 FENGYUN 1C DEB
1 30413U 99025AEC 19188.82912187 +.00000394 +00000-0 +25584-3 0  9994
2 30413 102.0705 281.5391 0061546 045.3292 076.5207 14.10755771638624
0 FENGYUN 1C DEB
1 30414U 99025AED 19188.89671870 -.00000035 +00000-0 +56058-5 0  9998
2 30414 099.0310 271.3258 0077795 034.9657 325.6588 14.12407387639151
0 FENGYUN 1C DEB
1 30415U 99025AEE 19188.62262465 +.00000324 +00000-0 +37724-3 0  9993
2 30415 099.7890 214.2459 0253200 140.6690 346.8251 13.63247960618131
0 FENGYUN 1C DEB
1 30415U 99025AEE 19189.04895618  .00000340  00000-0  39371-3 0  9990
2 30415  99.7890 214.6747 0253235 139.5969 279.1220 13.63248431618362
0 FENGYUN 1C DEB
1 30417U 99025AEG 19189.54706480  .00000048  00000-0  49101-4 0  9993
2 30417  98.7396 219.1706 0065508 337.0236 177.8559 14.12078777642382
0 FENGYUN 1C DEB
1 30417U 99025AEG 19188.55486774 +.00000030 +00000-0 +39226-4 0  9992
2 30417 098.7397 218.2031 0065568 339.8657 174.0154 14.12078596642027
0 FENGYUN 1C DEB
1 30418U 99025AEH 19188.80436757 +.00000200 +00000-0 +45346-4 0  9996
2 30418 098.8181 136.7946 0162441 185.5077 238.3110 14.60381480661590
0 FENGYUN 1C DEB
1 30418U 99025AEH 19189.82554352  .00000207  00000-0  46552-4 0  9998
2 30418  98.8182 137.8815 0162512 182.3669 207.0243 14.60382043662035
0 FENGYUN 1C DEB
1 30419U 99025AEJ 19189.14367087  .00000185  00000-0  12524-3 0  9997
2 30419  99.3396  22.5280 0056549 134.0036 352.5852 14.11965478641684
0 FENGYUN 1C DEB
1 30419U 99025AEJ 19188.49551632 +.00000167 +00000-0 +11575-3 0  9990
2 30419 099.3397 021.8534 0056510 135.7967 297.9811 14.11965174641385
0 FENGYUN 1C DEB
1 30423U 99025AEN 19188.77159900 +.00000865 +00000-0 +27801-3 0  9992
2 30423 098.5559 123.7601 0068090 185.4444 234.3097 14.40581520649218
0 FENGYUN 1C DEB
1 30429U 99025AEQ 19188.94445757 +.00002060 +00000-0 +25300-3 0  9996
2 30429 099.1660 338.6239 0061332 259.0415 100.3891 14.83182686663088
0 FENGYUN 1C DEB
1 30432U 99025AET 19188.82718797 +.00000110 +00000-0 +54632-4 0  9999
2 30432 098.9101 335.1327 0093035 036.7300 324.0211 14.33068064650262
0 FENGYUN 1C DEB
1 30432U 99025AET 19189.10646538  .00000112  00000-0  55277-4 0  9992
2 30432  98.9101 335.4200 0093023  35.9157 324.8231 14.33068142650721
0 FENGYUN 1C DEB
1 30434U 99025AEV 19189.55880688  .00000052  00000-0  73584-4 0  9993
2 30434  99.0666 225.8064 0125184 129.5892  26.3127 13.88555842631118
0 FENGYUN 1C DEB
1 30434U 99025AEV 19188.74846767 +.00000049 +00000-0 +71174-4 0  9992
2 30434 099.0666 225.0183 0125153 131.7552 295.6147 13.88555749630787
0 FENGYUN 1C DEB
1 30435U 99025AEW 19188.89205777 +.00001121 +00000-0 +11138-2 0  9993
2 30435 099.0378 280.0747 0236225 184.5179 244.6888 13.68579796619407
0 FENGYUN 1C DEB
1 30436U 99025AEX 19188.52312323 +.00000544 +00000-0 +35704-3 0  9994
2 30436 098.3839 208.2631 0130197 347.9419 165.3678 14.01710940633711
0 FENGYUN 1C DEB
1 30436U 99025AEX 19189.52284935  .00000561  00000-0  36786-3 0  9992
2 30436  98.3840 209.1828 0130099 345.0918 170.1761 14.01712178634156
0 FENGYUN 1C DEB
1 30438U 99025AEZ 19189.78351045  .00000140  00000-0  14614-3 0  9998
2 30438  98.8617 303.2586 0147044  95.2110 266.5846 13.85048212627640
0 FENGYUN 1C DEB
1 30439U 99025AFA 19188.78648176 -.00000079 +00000-0 -21595-4 0  9992
2 30439 098.9560 220.8204 0041286 101.5384 319.6727 14.05999117637488
0 FENGYUN 1C DEB
1 30441U 99025AFC 19188.92337125 +.00000069 +00000-0 +10179-3 0  9992
2 30441 098.9608 356.5567 0188862 001.9080 358.2751 13.74978623625578
0 FENGYUN 1C DEB
1 30442U 99025AFD 19188.70254888 +.00000513 +00000-0 +30328-3 0  9995
2 30442 098.9707 249.9553 0071536 132.4870 351.7232 14.10919750639063
0 FENGYUN 1C DEB
1 30442U 99025AFD 19189.69547723  .00000511  00000-0  30196-3 0  9998
2 30442  98.9706 250.9469 0071546 129.7956 355.0121 14.10920725639816
0 FENGYUN 1C DEB
1 30443U 99025AFE 19189.32171067  .00000523  00000-0  29061-3 0  9995
2 30443  98.8011 109.1171 0032568 258.2546 101.4973 14.15187667641157
0 FENGYUN 1C DEB
1 30443U 99025AFE 19188.75609754 +.00000522 +00000-0 +28992-3 0  9991
2 30443 098.8011 108.5590 0032614 259.9812 099.7680 14.15187010640583
0 FENGYUN 1C DEB
1 30444U 99025AFF 19188.95657463 +.00000499 +00000-0 +19511-3 0  9994
2 30444 099.3005 011.9003 0246968 194.3859 327.1513 14.19108532639487
0 FENGYUN 1C DEB
1 30445U 99025AFG 19188.77504736 +.00000091 +00000-0 +41512-4 0  9994
2 30445 098.9390 023.6415 0120617 171.6272 188.6966 14.39939808653125
0 FENGYUN 1C DEB
1 30445U 99025AFG 19189.12248700  .00000094  00000-0  42389-4 0  9996
2 30445  98.9390  24.0040 0120634 170.6009 189.7476 14.39939924653172
0 FENGYUN 1C DEB
1 30446U 99025AFH 19188.85798074 +.00000426 +00000-0 +19676-3 0  9991
2 30446 098.7920 238.5280 0048159 146.1178 214.3094 14.25518617645768
0 FENGYUN 1C DEB
1 30447U 99025AFJ 19188.86062115 +.00000296 +00000-0 +13962-3 0  9990
2 30447 098.9220 295.9505 0102346 059.1725 059.5335 14.24376658644437
0 FENGYUN 1C DEB
1 30447U 99025AFJ 19189.20090295  .00000302  00000-0  14204-3 0  9997
2 30447  98.9220 296.2960 0102306  58.1943   4.4128 14.24376921644468
0 FENGYUN 1C DEB
1 30448U 99025AFK 19188.91481806 +.00000407 +00000-0 +22393-3 0  9991
2 30448 098.9761 227.9670 0021638 289.3213 195.2225 14.17221792639394
0 FENGYUN 1C DEB
1 30450U 99025AFM 19188.81434223 +.00000251 +00000-0 +61325-4 0  9990
2 30450 098.3172 233.0567 0230898 240.7356 178.8881 14.46833967654688
